ONEWEB-0207             
1 48242U 21031AJ  25262.50334570  .00000019  00000+0  15587-4 0  9990
2 48242  87.9076 343.5864 0002053  99.7594 260.3768 13.14503378212737
ONEWEB-0208             
1 48243U 21031AK  25262.48510365 -.00000361  00000+0 -10073-2 0  9991
2 48243  87.9081 343.6057 0001889 106.3649 253.7688 13.14503274212744
ONEWEB-0200             
1 48244U 21031AL  25262.60087784  .00000238  00000+0  60859-3 0  9999
2 48244  87.9081 343.5724 0001845 103.2458 256.8877 13.14504268212682
ONEWEB-0217             
1 48245U 21031AM  25262.61672711  .00000012  00000+0 -32866-5 0  9991
2 48245  87.9093 343.5561 0001823 112.7083 247.4239 13.14502819212633
ONEWEB-0211             
1 48767U 21045A   25262.55069381 -.00000038  00000+0 -13372-3 0  9999
2 48767  87.9030 313.1361 0001629 101.0574 259.0740 13.16084958208849
ONEWEB-0223             
1 48768U 21045B   25262.58128838  .00000050  00000+0  99329-4 0  9995
2 48768  87.9020 313.1840 0001415 103.6652 256.4636 13.15549049208828
ONEWEB-0230             
1 48769U 21045C   25262.55276973 -.00000137  00000+0 -39710-3 0  9992
2 48769  87.9016 313.2228 0001901  93.1352 266.9996 13.15549187209082
ONEWEB-0237             
1 48770U 21045D   25262.61772294 -.00000390  00000+0 -10711-2 0  9998
2 48770  87.9029 313.2053 0001521  97.3092 262.8211 13.15549550208818
